CCSDS_OEM_VERS = 1.0
CREATION_DATE  = 2017-05-11T11:33:29
ORIGINATOR     = GMAT USER

META_START
OBJECT_NAME          = MOPSSat_alt_35785_km_RAAN_180_044
OBJECT_ID            = SatId
CENTER_NAME          = Earth
REF_FRAME            = EME2000
TIME_SYSTEM          = UTC
START_TIME           = 2017-01-01T00:00:00.000
USEABLE_START_TIME   = 2017-01-01T00:00:00.000
USEABLE_STOP_TIME    = 2017-01-02T00:00:00.000
STOP_TIME            = 2017-01-02T00:00:00.000
INTERPOLATION        = Lagrange
INTERPOLATION_DEGREE = 7 
META_STOP


                                                                                   

2017-01-01T23:59:10.000  -4.215968419873247e+04  -5.838242738935046e+02   2.090318804636818e+00   4.259073700800699e-02  -3.074405166232473e+00   1.025907924395851e-04
2017-01-01T23:59:20.000  -4.215924708151731e+04  -6.145681679520948e+02   2.091344259326910e+00   4.483270056780202e-02  -3.074373251539005e+00   1.025001291453192e-04
2017-01-01T23:59:30.000  -4.215878754478730e+04  -6.453117342870412e+02   2.092368806999291e+00   4.707464031336700e-02  -3.074339701951323e+00   1.024093916116703e-04
2017-01-01T23:59:40.000  -4.215830558879004e+04  -6.760549563262800e+02   2.093392446904333e+00   4.931655503625007e-02  -3.074304517487517e+00   1.023185798786223e-04
2017-01-01T23:59:50.000  -4.215780121378339e+04  -7.067978179263155e+02   2.094415178307265e+00   5.155844355925238e-02  -3.074267698166434e+00   1.022276939849590e-04
2017-01-02T00:00:00.000  -4.215727442003294e+04  -7.375403037945705e+02   2.095437000502403e+00   5.380030476722730e-02  -3.074229244007479e+00   1.021367339670328e-04
